ISS (ZARYA)             
1 25544U 98067A   24036.68122209  .00013977  00000+0  25658-3 0  9990
2 25544  51.6399 251.9880 0001707 207.4600 262.7027 15.49533955438002
ISS DEB                 
1 47853U 98067RZ  24036.55040081  .00226971  33035-4  40922-3 0  9990
2 47853  51.6216 170.6731 0003056 318.5772  41.5006 16.01135094165695
CSS (TIANHE)            
1 48274U 21035A   24036.36608808  .00018602  00000+0  20127-3 0  9991
2 48274  41.4670 174.6636 0008465 305.7971  54.2081 15.63100177158305
ISS (NAUKA)             
1 49044U 21066A   24036.59700874  .00017453  00000+0  31823-3 0  9990
2 49044  51.6379 252.4088 0002378 207.2271 152.8593 15.49536073437981
FREGAT DEB              
1 49271U 11037PF  24033.93881504 -.00000270  00000+0 -45234-3 0  9996
2 49271  51.6634  13.3505 0967613 199.5933 156.5163 12.11427032118783
CSS (WENTIAN)           
1 53239U 22085A   24036.36608808  .00018602  00000+0  20127-3 0  9994
2 53239  41.4670 174.6636 0008465 305.7971  54.2081 15.63100177158302
CSS (MENGTIAN)          
1 54216U 22143A   24036.36608808  .00018602  00000+0  20127-3 0  9995
2 54216  41.4670 174.6636 0008465 305.7971  54.2081 15.63100177158308
ISS DEB                 
1 57212U 98067VP  24036.54709660  .00073492  00000+0  58065-3 0  9990
2 57212  51.6306 237.7965 0004749 205.3173 154.7593 15.70693301 35113
MOONLIGHTER             
1 57316U 98067VU  24036.56604295  .02314816  75723-2  16477-2 0  9992
2 57316  51.6199 226.5098 0011105 279.4158  80.5604 16.17080082 33564
PROGRESS-MS 24          
1 57691U 23125A   24036.59700874  .00017453  00000+0  31823-3 0  9995
2 57691  51.6379 252.4088 0002378 207.2271 152.8593 15.49536073437988
CREW DRAGON 7           
1 57697U 23128A   24036.59700874  .00017453  00000+0  31823-3 0  9994
2 57697  51.6379 252.4088 0002378 207.2271 152.8593 15.49536073437984
SOYUZ-MS 24             
1 57862U 23143A   24036.59700874  .00017453  00000+0  31823-3 0  9995
2 57862  51.6379 252.4088 0002378 207.2271 152.8593 15.49536073437988
SHENZHOU-17 (SZ-17)     
1 58146U 23164A   24036.36608808  .00018602  00000+0  20127-3 0  9995
2 58146  41.4670 174.6636 0008465 305.7971  54.2081 15.63100177158304
ISS DEB                 
1 58174U 98067WA  24035.85793969  .00149953  00000+0  12398-2 0  9990
2 58174  51.6332 249.7175 0006255 189.5867 170.5012 15.69269247 15940
