[
  {
    "OBJECT_NAME": "ISS (ZARYA)",
    "OBJECT_ID": "1998-067A",
    "EPOCH": "2024-02-05T16:20:57.588576",
    "MEAN_MOTION": 15.49533955,
    "ECCENTRICITY": 0.0001707,
    "INCLINATION": 51.6399,
    "RA_OF_ASC_NODE": 251.988,
    "ARG_OF_PERICENTER": 207.46,
    "MEAN_ANOMALY": 262.7027,
    "EPHEMERIS_TYPE": 0,
    "CLASSIFICATION_TYPE": "U",
    "NORAD_CAT_ID": 25544,
    "ELEMENT_SET_NO": 999,
    "REV_AT_EPOCH": 43800,
    "BSTAR": 0.00025658,
    "MEAN_MOTION_DOT": 0.00013977,
    "MEAN_MOTION_DDOT": 0
  },
  {
    "OBJECT_NAME": "ISS DEB",
    "OBJECT_ID": "1998-067RZ",
    "EPOCH": "2024-02-05T13:12:34.629984",
    "MEAN_MOTION": 16.01135094,
    "ECCENTRICITY": 0.0003056,
    "INCLINATION": 51.6216,
    "RA_OF_ASC_NODE": 170.6731,
    "ARG_OF_PERICENTER": 318.5772,
    "MEAN_ANOMALY": 41.5006,
    "EPHEMERIS_TYPE": 0,
    "CLASSIFICATION_TYPE": "U",
    "NORAD_CAT_ID": 47853,
    "ELEMENT_SET_NO": 999,
    "REV_AT_EPOCH": 16569,
    "BSTAR": 0.00040922,
    "MEAN_MOTION_DOT": 0.00226971,
    "MEAN_MOTION_DDOT": 0.000033035
  },
  {
    "OBJECT_NAME": "CSS (TIANHE)",
    "OBJECT_ID": "2021-035A",
    "EPOCH": "2024-02-05T08:47:10.010112",
    "MEAN_MOTION": 15.63100177,
    "ECCENTRICITY": 0.0008465,
    "INCLINATION": 41.467,
    "RA_OF_ASC_NODE": 174.6636,
    "ARG_OF_PERICENTER": 305.7971,
    "MEAN_ANOMALY": 54.2081,
    "EPHEMERIS_TYPE": 0,
    "CLASSIFICATION_TYPE": "U",
    "NORAD_CAT_ID": 48274,
    "ELEMENT_SET_NO": 999,
    "REV_AT_EPOCH": 15830,
    "BSTAR": 0.00020127,
    "MEAN_MOTION_DOT": 0.00018602,
    "MEAN_MOTION_DDOT": 0
  },
  {
    "OBJECT_NAME": "ISS (NAUKA)",
    "OBJECT_ID": "2021-066A",
    "EPOCH": "2024-02-05T14:19:41.555136",
    "MEAN_MOTION": 15.49536073,
    "ECCENTRICITY": 0.0002378,
    "INCLINATION": 51.6379,
    "RA_OF_ASC_NODE": 252.4088,
    "ARG_OF_PERICENTER": 207.2271,
    "MEAN_ANOMALY": 152.8593,
    "EPHEMERIS_TYPE": 0,
    "CLASSIFICATION_TYPE": "U",
    "NORAD_CAT_ID": 49044,
    "ELEMENT_SET_NO": 999,
    "REV_AT_EPOCH": 43798,
    "BSTAR": 0.00031823,
    "MEAN_MOTION_DOT": 0.00017453,
    "MEAN_MOTION_DDOT": 0
  },
  {
    "OBJECT_NAME": "FREGAT DEB",
    "OBJECT_ID": "2011-037PF",
    "EPOCH": "2024-02-02T22:31:53.619456",
    "MEAN_MOTION": 12.11427032,
    "ECCENTRICITY": 0.0967613,
    "INCLINATION": 51.6634,
    "RA_OF_ASC_NODE": 13.3505,
    "ARG_OF_PERICENTER": 199.5933,
    "MEAN_ANOMALY": 156.5163,
    "EPHEMERIS_TYPE": 0,
    "CLASSIFICATION_TYPE": "U",
    "NORAD_CAT_ID": 49271,
    "ELEMENT_SET_NO": 999,
    "REV_AT_EPOCH": 11878,
    "BSTAR": -0.00045234,
    "MEAN_MOTION_DOT": -0.0000027,
    "MEAN_MOTION_DDOT": 0
  },
  {
    "OBJECT_NAME": "CSS (WENTIAN)",
    "OBJECT_ID": "2022-085A",
    "EPOCH": "2024-02-05T08:47:10.010112",
    "MEAN_MOTION": 15.63100177,
    "ECCENTRICITY": 0.0008465,
    "INCLINATION": 41.467,
    "RA_OF_ASC_NODE": 174.6636,
    "ARG_OF_PERICENTER": 305.7971,
    "MEAN_ANOMALY": 54.2081,
    "EPHEMERIS_TYPE": 0,
    "CLASSIFICATION_TYPE": "U",
    "NORAD_CAT_ID": 53239,
    "ELEMENT_SET_NO": 999,
    "REV_AT_EPOCH": 15830,
    "BSTAR": 0.00020127,
    "MEAN_MOTION_DOT": 0.00018602,
    "MEAN_MOTION_DDOT": 0
  },
  {
    "OBJECT_NAME": "CSS (MENGTIAN)",
    "OBJECT_ID": "2022-143A",
    "EPOCH": "2024-02-05T08:47:10.010112",
    "MEAN_MOTION": 15.63100177,
    "ECCENTRICITY": 0.0008465,
    "INCLINATION": 41.467,
    "RA_OF_ASC_NODE": 174.6636,
    "ARG_OF_PERICENTER": 305.7971,
    "MEAN_ANOMALY": 54.2081,
    "EPHEMERIS_TYPE": 0,
    "CLASSIFICATION_TYPE": "U",
    "NORAD_CAT_ID": 54216,
    "ELEMENT_SET_NO": 999,
    "REV_AT_EPOCH": 15830,
    "BSTAR": 0.00020127,
    "MEAN_MOTION_DOT": 0.00018602,
    "MEAN_MOTION_DDOT": 0
  },
  {
    "OBJECT_NAME": "ISS DEB",
    "OBJECT_ID": "1998-067VP",
    "EPOCH": "2024-02-05T13:07:49.146240",
    "MEAN_MOTION": 15.70693301,
    "ECCENTRICITY": 0.0004749,
    "INCLINATION": 51.6306,
    "RA_OF_ASC_NODE": 237.7965,
    "ARG_OF_PERICENTER": 205.3173,
    "MEAN_ANOMALY": 154.7593,
    "EPHEMERIS_TYPE": 0,
    "CLASSIFICATION_TYPE": "U",
    "NORAD_CAT_ID": 57212,
    "ELEMENT_SET_NO": 999,
    "REV_AT_EPOCH": 3511,
    "BSTAR": 0.00058065,
    "MEAN_MOTION_DOT": 0.00073492,
    "MEAN_MOTION_DDOT": 0
  },
  {
    "OBJECT_NAME": "MOONLIGHTER",
    "OBJECT_ID": "1998-067VU",
    "EPOCH": "2024-02-05T13:35:06.110880",
    "MEAN_MOTION": 16.17080082,
    "ECCENTRICITY": 0.0011105,
    "INCLINATION": 51.6199,
    "RA_OF_ASC_NODE": 226.5098,
    "ARG_OF_PERICENTER": 279.4158,
    "MEAN_ANOMALY": 80.5604,
    "EPHEMERIS_TYPE": 0,
    "CLASSIFICATION_TYPE": "U",
    "NORAD_CAT_ID": 57316,
    "ELEMENT_SET_NO": 999,
    "REV_AT_EPOCH": 3356,
    "BSTAR": 0.0016477,
    "MEAN_MOTION_DOT": 0.02314816,
    "MEAN_MOTION_DDOT": 0.0075723
  },
  {
    "OBJECT_NAME": "PROGRESS-MS 24",
    "OBJECT_ID": "2023-125A",
    "EPOCH": "2024-02-05T14:19:41.555136",
    "MEAN_MOTION": 15.49536073,
    "ECCENTRICITY": 0.0002378,
    "INCLINATION": 51.6379,
    "RA_OF_ASC_NODE": 252.4088,
    "ARG_OF_PERICENTER": 207.2271,
    "MEAN_ANOMALY": 152.8593,
    "EPHEMERIS_TYPE": 0,
    "CLASSIFICATION_TYPE": "U",
    "NORAD_CAT_ID": 57691,
    "ELEMENT_SET_NO": 999,
    "REV_AT_EPOCH": 43798,
    "BSTAR": 0.00031823,
    "MEAN_MOTION_DOT": 0.00017453,
    "MEAN_MOTION_DDOT": 0
  },
  {
    "OBJECT_NAME": "CREW DRAGON 7",
    "OBJECT_ID": "2023-128A",
    "EPOCH": "2024-02-05T14:19:41.555136",
    "MEAN_MOTION": 15.49536073,
    "ECCENTRICITY": 0.0002378,
    "INCLINATION": 51.6379,
    "RA_OF_ASC_NODE": 252.4088,
    "ARG_OF_PERICENTER": 207.2271,
    "MEAN_ANOMALY": 152.8593,
    "EPHEMERIS_TYPE": 0,
    "CLASSIFICATION_TYPE": "U",
    "NORAD_CAT_ID": 57697,
    "ELEMENT_SET_NO": 999,
    "REV_AT_EPOCH": 43798,
    "BSTAR": 0.00031823,
    "MEAN_MOTION_DOT": 0.00017453,
    "MEAN_MOTION_DDOT": 0
  },
  {
    "OBJECT_NAME": "SOYUZ-MS 24",
    "OBJECT_ID": "2023-143A",
    "EPOCH": "2024-02-05T14:19:41.555136",
    "MEAN_MOTION": 15.49536073,
    "ECCENTRICITY": 0.0002378,
    "INCLINATION": 51.6379,
    "RA_OF_ASC_NODE": 252.4088,
    "ARG_OF_PERICENTER": 207.2271,
    "MEAN_ANOMALY": 152.8593,
    "EPHEMERIS_TYPE": 0,
    "CLASSIFICATION_TYPE": "U",
    "NORAD_CAT_ID": 57862,
    "ELEMENT_SET_NO": 999,
    "REV_AT_EPOCH": 43798,
    "BSTAR": 0.00031823,
    "MEAN_MOTION_DOT": 0.00017453,
    "MEAN_MOTION_DDOT": 0
  },
  {
    "OBJECT_NAME": "SHENZHOU-17 (SZ-17)",
    "OBJECT_ID": "2023-164A",
    "EPOCH": "2024-02-05T08:47:10.010112",
    "MEAN_MOTION": 15.63100177,
    "ECCENTRICITY": 0.0008465,
    "INCLINATION": 41.467,
    "RA_OF_ASC_NODE": 174.6636,
    "ARG_OF_PERICENTER": 305.7971,
    "MEAN_ANOMALY": 54.2081,
    "EPHEMERIS_TYPE": 0,
    "CLASSIFICATION_TYPE": "U",
    "NORAD_CAT_ID": 58146,
    "ELEMENT_SET_NO": 999,
    "REV_AT_EPOCH": 15830,
    "BSTAR": 0.00020127,
    "MEAN_MOTION_DOT": 0.00018602,
    "MEAN_MOTION_DDOT": 0
  },
  {
    "OBJECT_NAME": "ISS DEB",
    "OBJECT_ID": "1998-067WA",
    "EPOCH": "2024-02-04T20:35:25.989216",
    "MEAN_MOTION": 15.69269247,
    "ECCENTRICITY": 0.0006255,
    "INCLINATION": 51.6332,
    "RA_OF_ASC_NODE": 249.7175,
    "ARG_OF_PERICENTER": 189.5867,
    "MEAN_ANOMALY": 170.5012,
    "EPHEMERIS_TYPE": 0,
    "CLASSIFICATION_TYPE": "U",
    "NORAD_CAT_ID": 58174,
    "ELEMENT_SET_NO": 999,
    "REV_AT_EPOCH": 1594,
    "BSTAR": 0.0012398,
    "MEAN_MOTION_DOT": 0.00149953,
    "MEAN_MOTION_DDOT": 0
  }
]